FLOCK 4G-33             
1 62685U 25009CE  26115.76054970  .00006644  00000+0  27041-3 0  9992
2 62685  97.3948 196.2574 0006734 143.7445 216.4250 15.24818542 70817
PELICAN-3               
1 65315U 25188A   26115.82993991  .00010159  00000+0  25140-3 0  9999
2 65315  97.1984 192.7722 0002699 131.4059 228.7420 15.40622474 37256
PELICAN-4               
1 65316U 25188B   26115.78020165  .00001128  00000+0  29711-4 0  9994
2 65316  97.2049 192.8692 0005256 163.5854 196.5564 15.40614772 37240
PELICAN-5               
1 66667U 25276B   26115.78501603  .00003973  00000+0  14608-3 0  9991
2 66667  97.4167 190.9552 0004539 149.4728 210.6777 15.28471228 22514
PELICAN-6               
1 66703U 25276AP  26115.91809382  .00006852  00000+0  24704-3 0  9999
2 66703  97.4158 191.2462 0002785  62.6463 297.5060 15.28856215 22547
FLOCK 4H-1              
1 66704U 25276AQ  26115.78723731  .00005885  00000+0  27675-3 0  9993
2 66704  97.4192 190.3207 0003488 123.6076 236.5492 15.19945083 22478
FLOCK 4H-2              
1 66705U 25276AR  26115.77464488  .00006129  00000+0  28599-3 0  9992
2 66705  97.4189 190.3296 0002665 121.4533 238.6963 15.20204272 22479
FLOCK 4H-3              
1 66706U 25276AS  26115.78424269  .00007510  00000+0  35851-3 0  9991
2 66706  97.4256 190.2973 0004528 164.1422 195.9956 15.19330122 22465
FLOCK 4H-4              
1 66707U 25276AT  26115.74235719  .00006589  00000+0  31716-3 0  9999
2 66707  97.4241 190.1690 0005089 167.4430 192.6932 15.19086807 22458
FLOCK 4H-5              
1 66708U 25276AU  26115.71639774  .00006210  00000+0  29147-3 0  9992
2 66708  97.4193 190.2669 0002219 116.5069 243.6394 15.19996224 22460
FLOCK 4H-6              
1 66709U 25276AV  26115.94313496  .00007706  00000+0  36425-3 0  9996
2 66709  97.4243 190.5187 0004399 138.2341 221.9230 15.19667048 22490
FLOCK 4H-7              
1 66710U 25276AW  26115.64867066  .00006089  00000+0  29075-3 0  9998
2 66710  97.4201 190.0604 0002343 171.0215 189.1062 15.19405258 22443
FLOCK 4H-8              
1 66711U 25276AX  26115.77624567  .00006439  00000+0  30654-3 0  9994
2 66711  97.4241 190.2818 0003715 173.2741 186.8545 15.19485671 22468
FLOCK 4H-9              
1 66712U 25276AY  26115.93741588  .00007642  00000+0  35999-3 0  9990
2 66712  97.4233 190.5093 0004418 143.5378 216.6159 15.19786023 22496
FLOCK 4H-10             
1 66713U 25276AZ  26115.93058294  .00007352  00000+0  35217-3 0  9997
2 66713  97.4206 190.3105 0005002 166.8261 193.3105 15.19215665 22488
FLOCK 4H-11             
1 66714U 25276BA  26115.76309905  .00014101  00000+0  63474-3 0  9993
2 66714  97.4217 190.4161 0003497 172.2023 187.9268 15.21187207 22478
